[{"OBJECT_NAME":"STARLINK-30434","OBJECT_ID":"2023-144M","EPOCH":"2026-03-09T22:33:55.373472","MEAN_MOTION":15.26740194,"ECCENTRICITY":0.00011856,"INCLINATION":42.9981,"RA_OF_ASC_NODE":283.9638,"ARG_OF_PERICENTER":285.8456,"MEAN_ANOMALY":74.2264,"EPHEMERIS_TYPE":0,"CLASSIFICATION_TYPE":"U","NORAD_CAT_ID":57875,"ELEMENT_SET_NO":999,"REV_AT_EPOCH":13768,"BSTAR":2.2819805e-5,"MEAN_MOTION_DOT":3.53e-6,"MEAN_MOTION_DDOT":0},{"OBJECT_NAME":"SCS-01 C","OBJECT_ID":"2025-100C","EPOCH":"2026-03-09T21:59:59.204544","MEAN_MOTION":15.20980224,"ECCENTRICITY":0.00246678,"INCLINATION":97.3736,"RA_OF_ASC_NODE":143.8302,"ARG_OF_PERICENTER":335.341,"MEAN_ANOMALY":24.6645,"EPHEMERIS_TYPE":0,"CLASSIFICATION_TYPE":"U","NORAD_CAT_ID":63984,"ELEMENT_SET_NO":999,"REV_AT_EPOCH":4553,"BSTAR":0.00052394566,"MEAN_MOTION_DOT":0.00011645,"MEAN_MOTION_DDOT":0}]
